[{"OBJECT_NAME":"ONEWEB-0541","OBJECT_ID":"2023-004C","EPOCH":"2026-03-09T22:05:05.713728","MEAN_MOTION":13.11415686,"ECCENTRICITY":0.00019799,"INCLINATION":87.8866,"RA_OF_ASC_NODE":40.7872,"ARG_OF_PERICENTER":81.1178,"MEAN_ANOMALY":279.0174,"EPHEMERIS_TYPE":0,"CLASSIFICATION_TYPE":"U","NORAD_CAT_ID":55142,"ELEMENT_SET_NO":999,"REV_AT_EPOCH":15293,"BSTAR":0.00082631926,"MEAN_MOTION_DOT":3.06e-6,"MEAN_MOTION_DDOT":0},{"OBJECT_NAME":"CZ-4C DEB","OBJECT_ID":"2012-029D","EPOCH":"2026-03-09T11:53:10.324032","MEAN_MOTION":13.1957689,"ECCENTRICITY":0.01306302,"INCLINATION":100.467,"RA_OF_ASC_NODE":185.3226,"ARG_OF_PERICENTER":228.0275,"MEAN_ANOMALY":130.9651,"EPHEMERIS_TYPE":0,"CLASSIFICATION_TYPE":"U","NORAD_CAT_ID":38662,"ELEMENT_SET_NO":999,"REV_AT_EPOCH":66031,"BSTAR":0.00043272861,"MEAN_MOTION_DOT":1.35e-6,"MEAN_MOTION_DDOT":0}]
